[{"OBJECT_NAME":"NUSHSAT1","OBJECT_ID":"2025-052B","EPOCH":"2026-03-09T15:31:41.225952","MEAN_MOTION":15.31903202,"ECCENTRICITY":0.0005501,"INCLINATION":97.4095,"RA_OF_ASC_NODE":325.7239,"ARG_OF_PERICENTER":84.7512,"MEAN_ANOMALY":275.4357,"EPHEMERIS_TYPE":0,"CLASSIFICATION_TYPE":"U","NORAD_CAT_ID":63211,"ELEMENT_SET_NO":999,"REV_AT_EPOCH":5488,"BSTAR":0.00074857,"MEAN_MOTION_DOT":0.00023034,"MEAN_MOTION_DDOT":0},{"OBJECT_NAME":"STARLINK-34531","OBJECT_ID":"2025-144AC","EPOCH":"2026-03-09T15:03:22.789440","MEAN_MOTION":15.30140586,"ECCENTRICITY":0.0002417,"INCLINATION":53.1607,"RA_OF_ASC_NODE":181.2366,"ARG_OF_PERICENTER":48.4635,"MEAN_ANOMALY":311.6573,"EPHEMERIS_TYPE":0,"CLASSIFICATION_TYPE":"U","NORAD_CAT_ID":64750,"ELEMENT_SET_NO":999,"REV_AT_EPOCH":3970,"BSTAR":-0.0011666,"MEAN_MOTION_DOT":-0.0003469,"MEAN_MOTION_DDOT":0}]
