NUSHSAT1                
1 63211U 25052B   26068.64700493  .00023034  00000+0  74857-3 0  9997
2 63211  97.4095 325.7239 0005501  84.7512 275.4357 15.31903202 54882
STARLINK-34531          
1 64750U 25144AC  26068.62734710 -.00034690  00000+0 -11666-2 0  9995
2 64750  53.1607 181.2366 0002417  48.4635 311.6573 15.30140586 39705
